ONEWEB-0349             
1 49281U 21090C   25117.17146073  .00000143  00000+0  31983-3 0  9995
2 49281  87.9309 357.2817 0001697  82.5257 277.6069 13.20770305174914
ONEWEB-0353             
1 49282U 21090D   25117.22701007  .00000242  00000+0  61822-3 0  9991
2 49282  87.9085  12.4426 0001737  70.6158 289.5159 13.14502318172937
ONEWEB-0356             
1 49283U 21090E   25117.16989145  .00000094  00000+0  20050-3 0  9999
2 49283  87.9308 357.2737 0002682  75.2267 284.9163 13.20771007174917
ONEWEB-0358             
1 49284U 21090F   25117.35138981  .00000037  00000+0  58264-4 0  9991
2 49284  87.9309 357.2271 0001918  83.9576 276.1776 13.20766712175665
ONEWEB-0359             
1 49285U 21090G   25117.65126828  .00000000  00000+0 -31120-4 0  9995
2 49285  87.9307 357.1808 0001937  93.1839 266.9516 13.20771002175684
ONEWEB-0360             
1 49286U 21090H   25117.64179697 -.00000003  00000+0 -38273-4 0  9997
2 49286  87.9307 357.1883 0001832  86.1231 274.0112 13.20770767174992
ONEWEB-0361             
1 49287U 21090J   25117.62285975  .00000069  00000+0  13802-3 0  9993
2 49287  87.9307 357.1874 0001980  79.4883 280.6474 13.20771668175441
ONEWEB-0362             
1 49288U 21090K   25117.70119894  .00000046  00000+0  81429-4 0  9995
2 49288  87.9261  27.5772 0001638  82.1556 277.9762 13.19727023172118
